NORAD_CAT_ID,OBJECT_NAME,OBJECT_TYPE,EPOCH,MEAN_MOTION,ECCENTRICITY,INCLINATION,RA_OF_ASC_NODE,ARG_OF_PERICENTER,MEAN_ANOMALY,BSTAR,MEAN_MOTION_DOT,MEAN_MOTION_DDOT,TLE_LINE0,TLE_LINE1,TLE_LINE2,SEMIMAJOR_AXIS,PERIOD,APOGEE,PERIGEE,DECAYED
50198.0,STARLINK-3264,PAYLOAD,2022-11-14 06:42:24,15.08831385,0.0001989,53.2168,277.3579,40.9175,319.1966,-5.5045e-05,-1.164e-05,0.0,0 STARLINK-3264,1 50198U 21125AU  22318.27945545 -.00001164  00000-0 -55045-4 0  9998,2 50198  53.2168 277.3579 0001989  40.9175 319.1966 15.08831385 53378,6917.906999999997,95.438,541.148,538.396,0.0
50198.0,STARLINK-3264,PAYLOAD,2022-11-14 14:39:20,15.08837222,0.0001969,53.2167,275.8706,39.7269,320.3868,1.4341e-05,-6e-07,0.0,0 STARLINK-3264,1 50198U 21125AU  22318.61065088 -.00000060  00000-0  14341-4 0  9998,2 50198  53.2167 275.8706 0001969  39.7269 320.3868 15.08837222 53900,6917.889,95.438,541.116,538.3919999999998,0.0
50198.0,STARLINK-3264,PAYLOAD,2022-11-14 21:00:52,15.08839216,0.0001957,53.2168,274.6811,43.4057,316.7089,6.3814e-05,7.28e-06,0.0,0 STARLINK-3264,1 50198U 21125AU  22318.87560817  .00000728  00000-0  63814-4 0  9995,2 50198  53.2168 274.6811 0001957  43.4057 316.7089 15.08839216 53469,6917.8830000000025,95.438,541.102,538.394,0.0
50198.0,STARLINK-3264,PAYLOAD,2022-11-15 06:33:11,15.08837931,0.0002053,53.2166,272.899,41.6535,318.4613,4.4902e-05,4.26e-06,0.0,0 STARLINK-3264,1 50198U 21125AU  22319.27305031  .00000426  00000-0  44902-4 0  9997,2 50198  53.2166 272.8990 0002053  41.6535 318.4613 15.08837931 54009,6917.887,95.438,541.172,538.331,0.0
50198.0,STARLINK-3264,PAYLOAD,2022-11-15 14:30:06,15.08841566,0.0002172,53.2166,271.4118,43.4922,316.6241,8.4145e-05,1.051e-05,0.0,0 STARLINK-3264,1 50198U 21125AU  22319.60424727  .00001051  00000-0  84145-4 0  9996,2 50198  53.2166 271.4118 0002172  43.4922 316.6241 15.08841566 54059,6917.876,95.437,541.243,538.238,0.0
50198.0,STARLINK-3264,PAYLOAD,2022-11-16 03:13:12,15.08838026,0.0002206,53.2171,269.0316,48.2947,311.8234,0.00019076,2.749e-05,0.0,0 STARLINK-3264,1 50198U 21125AU  22320.13416977  .00002749  00000-0  19076-3 0  9999,2 50198  53.2171 269.0316 0002206  48.2947 311.8234 15.08838026 53657,6917.886,95.438,541.278,538.225,0.0
50198.0,STARLINK-3264,PAYLOAD,2022-11-16 06:23:57,15.08846644,0.0001979,53.2168,268.4372,47.2795,312.8364,0.00025994,3.852e-05,0.0,0 STARLINK-3264,1 50198U 21125AU  22320.26664248  .00003852  00000-0  25994-3 0  9991,2 50198  53.2168 268.4372 0001979  47.2795 312.8364 15.08846644 53676,6917.86,95.437,541.094,538.356,0.0
50198.0,STARLINK-3264,PAYLOAD,2022-11-17 03:03:59,15.0884104,0.0002217,53.2174,264.5718,48.1401,311.978,6.311e-06,-1.88e-06,0.0,0 STARLINK-3264,1 50198U 21125AU  22321.12777324 -.00000188  00000-0  63110-5 0  9991,2 50198  53.2174 264.5718 0002217  48.1401 311.9780 15.08841040 53806,6917.877,95.437,541.276,538.2090000000002,0.0
50198.0,STARLINK-3264,PAYLOAD,2022-11-17 06:14:45,15.08841664,0.000214,53.2173,263.9772,48.3953,311.7222,2.0601e-05,4e-07,0.0,0 STARLINK-3264,1 50198U 21125AU  22321.26025276  .00000040  00000-0  20601-4 0  9991,2 50198  53.2173 263.9772 0002140  48.3953 311.7222 15.08841664 54304,6917.875,95.437,541.221,538.26,0.0
50198.0,STARLINK-3264,PAYLOAD,2022-11-18 02:54:47,15.08833006,0.0002117,53.2171,260.1106,48.7717,311.3457,2.0813e-05,4.3e-07,0.0,0 STARLINK-3264,1 50198U 21125AU  22322.12137989  .00000043  00000-0  20813-4 0  9990,2 50198  53.2171 260.1106 0002117  48.7717 311.3457 15.08833006 53955,6917.901999999999,95.438,541.231,538.302,0.0
50198.0,STARLINK-3264,PAYLOAD,2022-11-18 12:27:05,15.08844558,0.0002126,53.217,258.3265,45.5239,314.5927,-5.6283e-05,-1.184e-05,0.0,0 STARLINK-3264,1 50198U 21125AU  22322.51881470 -.00001184  00000-0 -56283-4 0  9993,2 50198  53.2170 258.3265 0002126  45.5239 314.5927 15.08844558 54012,6917.866,95.437,541.202,538.261,0.0
50198.0,STARLINK-3264,PAYLOAD,2022-11-19 04:20:57,15.0880477,0.0002147,53.2163,255.3526,51.2046,308.9137,0.00058581,9.039e-05,0.0,0 STARLINK-3264,1 50198U 21125AU  22323.18122411  .00009039  00000-0  58581-3 0  9997,2 50198  53.2163 255.3526 0002147  51.2046 308.9137 15.08804770 54117,6917.988,95.44,541.3380000000002,538.368,0.0
50198.0,STARLINK-3264,PAYLOAD,2022-11-20 04:11:43,15.08843087,0.000211,53.2168,250.8921,43.1738,316.9419,7.4756e-05,9.02e-06,0.0,0 STARLINK-3264,1 50198U 21125AU  22324.17481295  .00000902  00000-0  74756-4 0  9998,2 50198  53.2168 250.8921 0002110  43.1738 316.9419 15.08843087 54261,6917.871,95.437,541.196,538.276,0.0
50198.0,STARLINK-3264,PAYLOAD,2022-11-20 05:47:07,15.08843118,0.0002108,53.2169,250.5951,43.5131,316.6027,7.7362e-05,9.43e-06,0.0,0 STARLINK-3264,1 50198U 21125AU  22324.24105362  .00000943  00000-0  77362-4 0  9995,2 50198  53.2169 250.5951 0002108  43.5131 316.6027 15.08843118 54751,6917.871,95.437,541.194,538.278,0.0
50198.0,STARLINK-3264,PAYLOAD,2022-11-21 04:02:31,15.08841626,0.0002144,53.2168,246.4314,42.4825,317.6333,3.6299e-05,2.9e-06,0.0,0 STARLINK-3264,1 50198U 21125AU  22325.16841468  .00000290  00000-0  36299-4 0  9990,2 50198  53.2168 246.4314 0002144  42.4825 317.6333 15.08841626 54411,6917.875,95.437,541.224,538.257,0.0
50198.0,STARLINK-3264,PAYLOAD,2022-11-21 11:59:26,15.08848837,0.0002086,53.2166,244.9449,44.8798,315.2362,8.3753e-05,1.045e-05,0.0,0 STARLINK-3264,1 50198U 21125AU  22325.49960732  .00001045  00000-0  83753-4 0  9998,2 50198  53.2166 244.9449 0002086  44.8798 315.2362 15.08848837 54946,6917.853,95.437,541.161,538.275,0.0
50198.0,STARLINK-3264,PAYLOAD,2022-11-22 03:53:17,15.08837772,0.0001783,53.2177,241.9695,43.2646,316.8486,5.7717e-05,6.31e-06,0.0,0 STARLINK-3264,1 50198U 21125AU  22326.16201179  .00000631  00000-0  57717-4 0  9997,2 50198  53.2177 241.9695 0001783  43.2646 316.8486 15.08837772 54564,6917.887,95.438,540.986,538.519,0.0
50198.0,STARLINK-3264,PAYLOAD,2022-11-22 11:50:13,15.08839311,0.0002017,53.2173,240.4834,45.1591,314.9565,4.7173e-05,4.63e-06,0.0,0 STARLINK-3264,1 50198U 21125AU  22326.49321211  .00000463  00000-0  47173-4 0  9991,2 50198  53.2173 240.4834 0002017  45.1591 314.9565 15.08839311 55097,6917.882,95.438,541.143,538.352,0.0
50198.0,STARLINK-3264,PAYLOAD,2022-11-23 11:41:01,15.0883106,0.0001917,53.2181,236.0226,43.9981,316.1164,-3.9425e-05,-9.15e-06,0.0,0 STARLINK-3264,1 50198U 21125AU  22327.48681943 -.00000915  00000-0 -39425-4 0  9997,2 50198  53.2181 236.0226 0001917  43.9981 316.1164 15.08831060 54764,6917.908,95.438,541.099,538.447,0.0
50198.0,STARLINK-3264,PAYLOAD,2022-11-24 03:34:52,15.0880444,0.000211,53.2181,233.0492,46.9267,313.1901,0.00051017,7.833e-05,0.0,0 STARLINK-3264,1 50198U 21125AU  22328.14921822  .00007833  00000-0  51017-3 0  9998,2 50198  53.2181 233.0492 0002110  46.9267 313.1901 15.08804440 55345,6917.989000000001,95.44,541.314,538.394,0.0
50198.0,STARLINK-3264,PAYLOAD,2022-11-25 03:25:39,15.08832853,0.0001984,53.2166,228.5898,40.3881,319.7258,0.00010344,1.358e-05,0.0,0 STARLINK-3264,1 50198U 21125AU  22329.14281535  .00001358  00000-0  10344-3 0  9993,2 50198  53.2166 228.5898 0001984  40.3881 319.7258 15.08832853 55015,6917.901999999999,95.438,541.14,538.395,0.0
50198.0,STARLINK-3264,PAYLOAD,2022-11-25 11:22:34,15.08835326,0.0002004,53.2166,227.103,40.4368,319.6772,0.00010262,1.345e-05,0.0,0 STARLINK-3264,1 50198U 21125AU  22329.47401566  .00001345  00000-0  10262-3 0  9992,2 50198  53.2166 227.1030 0002004  40.4368 319.6772 15.08835326 55549,6917.895,95.438,541.146,538.373,0.0
50198.0,STARLINK-3264,PAYLOAD,2022-11-25 17:44:07,15.08840988,0.0002013,53.2166,225.9132,43.8132,316.302,7.5795e-05,9.18e-06,0.0,0 STARLINK-3264,1 50198U 21125AU  22329.73897327  .00000918  00000-0  75795-4 0  9993,2 50198  53.2166 225.9132 0002013  43.8132 316.3020 15.08840988 55588,6917.877,95.437,541.135,538.35,0.0
50198.0,STARLINK-3264,PAYLOAD,2022-11-26 09:37:58,15.08847665,0.0002057,53.2167,222.9404,38.6176,321.4963,8.1121e-05,1.003e-05,0.0,0 STARLINK-3264,1 50198U 21125AU  22330.40136814  .00001003  00000-0  81121-4 0  9992,2 50198  53.2167 222.9404 0002057  38.6176 321.4963 15.08847665 55207,6917.857,95.437,541.145,538.299,0.0
50198.0,STARLINK-3264,PAYLOAD,2022-11-26 17:34:53,15.08846412,0.0001907,53.2167,221.4532,40.6874,319.426,8.75e-05,1.105e-05,0.0,0 STARLINK-3264,1 50198U 21125AU  22330.73256712  .00001105  00000-0  87500-4 0  9998,2 50198  53.2167 221.4532 0001907  40.6874 319.4260 15.08846412 55738,6917.861,95.437,541.045,538.4069999999998,0.0
50198.0,STARLINK-3264,PAYLOAD,2022-11-27 03:07:12,15.08842041,0.0002005,53.2166,219.6692,39.0051,321.1086,4.1389e-05,3.71e-06,0.0,0 STARLINK-3264,1 50198U 21125AU  22331.13001038  .00000371  00000-0  41389-4 0  9991,2 50198  53.2166 219.6692 0002005  39.0051 321.1086 15.08842041 55316,6917.874,95.437,541.126,538.352,0.0
50198.0,STARLINK-3264,PAYLOAD,2022-11-27 17:25:42,15.08826347,0.0002024,53.2161,216.993,40.0904,320.0237,-6.2778e-05,-1.287e-05,0.0,0 STARLINK-3264,1 50198U 21125AU  22331.72618466 -.00001287  00000-0 -62778-4 0  9999,2 50198  53.2161 216.9930 0002024  40.0904 320.0237 15.08826347 55403,6917.922,95.438,541.187,538.387,0.0
50198.0,STARLINK-3264,PAYLOAD,2022-11-28 15:41:06,15.08832561,0.0002095,53.2165,212.83,39.6074,320.5071,-7.7753e-05,-1.525e-05,0.0,0 STARLINK-3264,1 50198U 21125AU  22332.65354830 -.00001525  00000-0 -77753-4 0  9998,2 50198  53.2165 212.8300 0002095  39.6074 320.5071 15.08832561 56028,6917.903,95.438,541.217,538.319,0.0
50198.0,STARLINK-3264,PAYLOAD,2022-11-28 17:16:29,15.08831776,0.0002147,53.2162,212.5326,37.5286,322.5856,-5.6272e-05,-1.184e-05,0.0,0 STARLINK-3264,1 50198U 21125AU  22332.71978820 -.00001184  00000-0 -56272-4 0  9990,2 50198  53.2162 212.5326 0002147  37.5286 322.5856 15.08831776 55557,6917.906,95.438,541.256,538.285,0.0
50198.0,STARLINK-3264,PAYLOAD,2022-11-29 01:13:25,15.08839445,0.0002117,53.2162,211.0459,40.2852,319.8296,-4.0614e-05,-9.35e-06,0.0,0 STARLINK-3264,1 50198U 21125AU  22333.05098405 -.00000935  00000-0 -40614-4 0  9996,2 50198  53.2162 211.0459 0002117  40.2852 319.8296 15.08839445 55609,6917.882,95.438,541.212,538.283,0.0
